NOAA 18 [B]             
1 28654U 05018A   23278.46148962  .00000409  00000+0  24296-3 0  9999
2 28654  98.9012 352.2781 0015136  70.0437 290.2364 14.13021497947144